const data = [
"1 07646U 75010A   22077.23482994 -.00000125  00000+0  14010-4 0  9993",
"2 07646  49.8233 110.2447 0205702 336.2430  22.9071 13.82311257379845",
"1 08820U 76039A   22076.23636976 -.00000006  00000+0  00000+0 0  9997",
"2 08820 109.8627   7.4007 0045082 274.5076 260.9094  6.38665056813963",
"1 16908U 86061A   22077.27067920 -.00000117  00000+0 -13869-3 0  9996",
"2 16908  50.0073 239.4137 0011355 189.2453 234.6981 12.44495798287493",
"1 19751U 89001C   22076.42471637  .00000069  00000+0  00000+0 0  9995",
"2 19751  64.2801 125.5521 0023658 213.0294 182.8469  2.13156337258275",
"1 20026U 89039C   22076.20888868 -.00000062  00000+0  00000+0 0  9991",
"2 20026  65.5483   3.5095 0018375 219.1852 265.4869  2.13204287255390",
"1 22195U 92070B   22073.63283903 -.00000009  00000+0  00000+0 0  9993",
"2 22195  52.6456 169.7300 0137748 227.3690 259.8940  6.47293956694719",
"1 22824U 93061B   22076.92477398 -.00000027  00000+0  79154-5 0  9993",
"2 22824  98.9723  95.4898 0007311  64.7920   4.7268 14.27388531483320",
"1 38077U 12006A   22076.37235765 -.00000061  00000+0 -13983-3 0  9994",
"2 38077  69.4925  64.5844 0006493  63.5777 296.5911 12.54930943462353",
];

export default data;
